NORAD_CAT_ID,OBJECT_NAME,OBJECT_TYPE,EPOCH,MEAN_MOTION,ECCENTRICITY,INCLINATION,RA_OF_ASC_NODE,ARG_OF_PERICENTER,MEAN_ANOMALY,BSTAR,MEAN_MOTION_DOT,MEAN_MOTION_DDOT,TLE_LINE0,TLE_LINE1,TLE_LINE2,SEMIMAJOR_AXIS,PERIOD,APOGEE,PERIGEE,DECAYED
52848.0,STARLINK-4202,PAYLOAD,2023-05-11 17:13:37,15.08836722,0.0001149,53.2153,351.3108,111.9894,248.1221,-4.7619e-05,-1.046e-05,0.0,0 STARLINK-4202,1 52848U 22062U   23131.71779128 -.00001046  00000-0 -47619-4 0  9995,2 52848  53.2153 351.3108 0001149 111.9894 248.1221 15.08836722 50330,6917.89,95.438,540.55,538.961,0.0
52848.0,STARLINK-4202,PAYLOAD,2023-05-11 21:59:47,15.08826979,0.0001196,53.2162,350.4186,109.7074,250.4047,0.00020926,3.043e-05,0.0,0 STARLINK-4202,1 52848U 22062U   23131.91651692  .00003043  00000-0  20926-3 0  9990,2 52848  53.2162 350.4186 0001196 109.7074 250.4047 15.08826979 50361,6917.92,95.438,540.613,538.958,0.0
52848.0,STARLINK-4202,PAYLOAD,2023-05-12 18:39:47,15.08840164,9.47e-05,53.2161,346.5532,106.7743,253.3354,0.00012893,1.765e-05,0.0,0 STARLINK-4202,1 52848U 22062U   23132.77763236  .00001765  00000-0  12893-3 0  9996,2 52848  53.2161 346.5532 0000947 106.7743 253.3354 15.08840164 50000,6917.88,95.438,540.4,539.09,0.0
52848.0,STARLINK-4202,PAYLOAD,2023-05-12 21:50:33,15.08846924,9.56e-05,53.2161,345.9584,100.9006,259.2094,0.00018419,2.645e-05,0.0,0 STARLINK-4202,1 52848U 22062U   23132.91010739  .00002645  00000-0  18419-3 0  9993,2 52848  53.2161 345.9584 0000956 100.9006 259.2094 15.08846924 50510,6917.859,95.437,540.386,539.063,0.0
52848.0,STARLINK-4202,PAYLOAD,2023-05-13 02:36:42,15.08853864,9.63e-05,53.2158,345.0659,97.8127,262.2975,0.00032165,4.837e-05,0.0,0 STARLINK-4202,1 52848U 22062U   23133.10882529  .00004837  00000-0  32165-3 0  9998,2 52848  53.2158 345.0659 0000963  97.8127 262.2975 15.08853864 50058,6917.838,95.437,540.369,539.037,0.0
52848.0,STARLINK-4202,PAYLOAD,2023-05-13 20:05:57,15.0884427,0.0001232,53.217,341.793,85.2806,274.8326,0.00019623,2.837e-05,0.0,0 STARLINK-4202,1 52848U 22062U   23133.83747310  .00002837  00000-0  19623-3 0  9998,2 52848  53.2170 341.7930 0001232  85.2806 274.8326 15.08844270 50164,6917.867,95.437,540.585,538.88,0.0
52848.0,STARLINK-4202,PAYLOAD,2023-05-14 19:56:44,15.0884422,0.0001268,53.2168,337.3325,91.2109,268.9029,7.5489e-05,9.14e-06,0.0,0 STARLINK-4202,1 52848U 22062U   23134.83107192  .00000914  00000-0  75489-4 0  9994,2 52848  53.2168 337.3325 0001268  91.2109 268.9029 15.08844220 50318,6917.867,95.437,540.61,538.855,0.0
52848.0,STARLINK-4202,PAYLOAD,2023-05-15 07:04:26,15.08837624,0.0001541,53.217,335.2504,72.2063,287.9098,-4.0487e-06,-3.52e-06,0.0,0 STARLINK-4202,1 52848U 22062U   23135.29475120 -.00000352  00000-0 -40487-5 0  9993,2 52848  53.2170 335.2504 0001541  72.2063 287.9098 15.08837624 50383,6917.888,95.438,540.819,538.687,0.0
52848.0,STARLINK-4202,PAYLOAD,2023-05-15 19:47:32,15.08837749,0.0001232,53.217,332.8726,86.4694,273.6439,5.9425e-05,6.58e-06,0.0,0 STARLINK-4202,1 52848U 22062U   23135.82467797  .00000658  00000-0  59425-4 0  9991,2 52848  53.2170 332.8726 0001232  86.4694 273.6439 15.08837749 50958,6917.887,95.438,540.605,538.9,0.0
52848.0,STARLINK-4202,PAYLOAD,2023-05-16 13:16:46,15.08841629,0.0001222,53.2171,329.6011,91.4399,268.6733,9.3109e-05,1.194e-05,0.0,0 STARLINK-4202,1 52848U 22062U   23136.55331685  .00001194  00000-0  93109-4 0  9991,2 52848  53.2171 329.6011 0001222  91.4399 268.6733 15.08841629 50578,6917.875,95.437,540.586,538.895,0.0
52848.0,STARLINK-4202,PAYLOAD,2023-05-16 19:38:19,15.08842676,0.0001175,53.2159,328.4118,83.8918,276.2208,9.735e-05,1.262e-05,0.0,0 STARLINK-4202,1 52848U 22062U   23136.81827623  .00001262  00000-0  97350-4 0  9990,2 52848  53.2159 328.4118 0001175  83.8918 276.2208 15.08842676 50618,6917.872,95.437,540.55,538.924,0.0
52848.0,STARLINK-4202,PAYLOAD,2023-05-17 01:59:51,15.0883221,0.0001025,53.2155,327.2219,92.6729,267.438,-7.4899e-05,-1.479e-05,0.0,0 STARLINK-4202,1 52848U 22062U   23137.08324001 -.00001479  00000-0 -74899-4 0  9997,2 52848  53.2155 327.2219 0001025  92.6729 267.4380 15.08832210 51140,6917.904,95.438,540.478,539.06,0.0
52848.0,STARLINK-4202,PAYLOAD,2023-05-17 19:29:06,15.08844838,0.0001012,53.2165,323.9514,82.6184,277.4923,0.00018218,2.613e-05,0.0,0 STARLINK-4202,1 52848U 22062U   23137.81187597  .00002613  00000-0  18218-3 0  9996,2 52848  53.2165 323.9514 0001012  82.6184 277.4923 15.08844838 51257,6917.866,95.437,540.431,539.031,0.0
52848.0,STARLINK-4202,PAYLOAD,2023-05-18 05:01:24,15.0884036,9.98e-05,53.2166,322.1666,81.1523,278.9582,5.1988e-05,5.4e-06,0.0,0 STARLINK-4202,1 52848U 22062U   23138.20931678  .00000540  00000-0  51988-4 0  9996,2 52848  53.2166 322.1666 0000998  81.1523 278.9582 15.08840360 50825,6917.879,95.438,540.435,539.054,0.0
52848.0,STARLINK-4202,PAYLOAD,2023-05-18 19:19:53,15.08843803,9.44e-05,53.2167,319.4895,90.2251,269.8849,0.00013613,1.88e-05,0.0,0 STARLINK-4202,1 52848U 22062U   23138.80547537  .00001880  00000-0  13613-3 0  9999,2 52848  53.2167 319.4895 0000944  90.2251 269.8849 15.08843803 51404,6917.869,95.437,540.387,539.081,0.0
52848.0,STARLINK-4202,PAYLOAD,2023-05-19 14:24:30,15.08840657,0.000104,53.2164,315.9207,87.4224,272.6887,0.00012523,1.706e-05,0.0,0 STARLINK-4202,1 52848U 22062U   23139.60035764  .00001706  00000-0  12523-3 0  9998,2 52848  53.2164 315.9207 0001040  87.4224 272.6887 15.08840657 51526,6917.878,95.438,540.463,539.024,0.0
52848.0,STARLINK-4202,PAYLOAD,2023-05-20 17:26:03,15.08848372,7.63e-05,53.2155,310.8684,100.1946,259.9132,0.00025846,3.829e-05,0.0,0 STARLINK-4202,1 52848U 22062U   23140.72643423  .00003829  00000-0  25846-3 0  9990,2 52848  53.2155 310.8684 0000763 100.1946 259.9132 15.08848372 51695,6917.855,95.437,540.248,539.192,0.0
52848.0,STARLINK-4202,PAYLOAD,2023-05-20 19:01:26,15.08856352,8.9e-05,53.2155,310.57,98.5494,261.5598,0.00029279,4.377e-05,0.0,0 STARLINK-4202,1 52848U 22062U   23140.79267056  .00004377  00000-0  29279-3 0  9994,2 52848  53.2155 310.5700 0000890  98.5494 261.5598 15.08856352 51210,6917.83,95.437,540.311,539.08,0.0
52848.0,STARLINK-4202,PAYLOAD,2023-05-21 04:33:46,15.0884008,0.0001313,53.2158,308.7842,80.004,280.1101,8.641e-05,1.088e-05,0.0,0 STARLINK-4202,1 52848U 22062U   23141.19011804  .00001088  00000-0  86410-4 0  9994,2 52848  53.2158 308.7842 0001313  80.0040 280.1101 15.08840080 51761,6917.88,95.438,540.653,538.837,0.0
52848.0,STARLINK-4202,PAYLOAD,2023-05-21 10:55:19,15.08835773,0.0001352,53.2154,307.5976,75.3945,284.7197,3.3097e-05,2.39e-06,0.0,0 STARLINK-4202,1 52848U 22062U   23141.45508141  .00000239  00000-0  33097-4 0  9998,2 52848  53.2154 307.5976 0001352  75.3945 284.7197 15.08835773 51315,6917.893,95.438,540.694,538.823,0.0
52848.0,STARLINK-4202,PAYLOAD,2023-05-21 17:16:51,15.0882753,7.99e-05,53.2157,306.408,70.3336,289.7742,-9.8677e-05,-1.857e-05,0.0,0 STARLINK-4202,1 52848U 22062U   23141.72004494 -.00001857  00000-0 -98677-4 0  9994,2 52848  53.2157 306.4080 0000799  70.3336 289.7742 15.08827530 51846,6917.919,95.438,540.336,539.231,0.0
52848.0,STARLINK-4202,PAYLOAD,2023-05-22 04:24:33,15.08842103,9.71e-05,53.2159,304.3251,76.3075,283.8025,0.00028305,4.22e-05,0.0,0 STARLINK-4202,1 52848U 22062U   23142.18372368  .00004220  00000-0  28305-3 0  9998,2 52848  53.2159 304.3251 0000971  76.3075 283.8025 15.08842103 51913,6917.874,95.437,540.411,539.067,0.0
52848.0,STARLINK-4202,PAYLOAD,2023-05-22 20:18:24,15.08858172,0.0001028,53.2163,301.3502,73.0365,287.074,0.00098099,0.00015367,0.0,0 STARLINK-4202,1 52848U 22062U   23142.84612218  .00015367  00000-0  98099-3 0  9993,2 52848  53.2163 301.3502 0001028  73.0365 287.0740 15.08858172 51524,6917.825,95.436,540.401,538.979,0.0
52848.0,STARLINK-4202,PAYLOAD,2023-05-23 10:36:53,15.08850786,0.0001662,53.2161,298.6745,77.9374,282.1804,0.00048408,7.427e-05,0.0,0 STARLINK-4202,1 52848U 22062U   23143.44228426  .00007427  00000-0  48408-3 0  9991,2 52848  53.2161 298.6745 0001662  77.9374 282.1804 15.08850786 52101,6917.847,95.437,540.862,538.563,0.0
52848.0,STARLINK-4202,PAYLOAD,2023-05-23 16:58:25,15.08846617,9.14e-05,53.2168,297.4844,74.8181,285.2912,0.00040684,6.194e-05,0.0,0 STARLINK-4202,1 52848U 22062U   23143.70724374  .00006194  00000-0  40684-3 0  9991,2 52848  53.2168 297.4844 0000914  74.8181 285.2912 15.08846617 51657,6917.86,95.437,540.357,539.093,0.0
52848.0,STARLINK-4202,PAYLOAD,2023-05-24 10:27:40,15.08840253,9.62e-05,53.2167,294.2143,78.1336,281.9764,0.00032076,4.821e-05,0.0,0 STARLINK-4202,1 52848U 22062U   23144.43588657  .00004821  00000-0  32076-3 0  9995,2 52848  53.2167 294.2143 0000962  78.1336 281.9764 15.08840253 52250,6917.88,95.438,540.41,539.079,0.0
52848.0,STARLINK-4202,PAYLOAD,2023-05-24 15:13:49,15.08841138,9.59e-05,53.2165,293.3224,77.4689,282.641,0.00013922,1.929e-05,0.0,0 STARLINK-4202,1 52848U 22062U   23144.63460630  .00001929  00000-0  13922-3 0  9992,2 52848  53.2165 293.3224 0000959  77.4689 282.6410 15.08841138 51794,6917.877,95.437,540.405,539.078,0.0
52848.0,STARLINK-4202,PAYLOAD,2023-05-25 18:15:23,15.0884528,0.0001094,53.2177,288.2712,82.261,277.8507,0.00020344,2.952e-05,0.0,0 STARLINK-4202,1 52848U 22062U   23145.76068500  .00002952  00000-0  20344-3 0  9990,2 52848  53.2177 288.2712 0001094  82.2610 277.8507 15.08845280 52450,6917.864,95.437,540.486,538.972,0.0
52848.0,STARLINK-4202,PAYLOAD,2023-05-25 19:50:46,15.08847366,0.0001135,53.2174,287.9701,97.0966,263.0155,0.00020252,2.937e-05,0.0,0 STARLINK-4202,1 52848U 22062U   23145.82692282  .00002937  00000-0  20252-3 0  9998,2 52848  53.2174 287.9701 0001135  97.0966 263.0155 15.08847366 51974,6917.858,95.437,540.508,538.938,0.0
52848.0,STARLINK-4202,PAYLOAD,2023-05-26 13:20:00,15.0883836,0.0001144,53.2175,284.698,96.3326,263.7796,-8.5044e-06,-4.23e-06,0.0,0 STARLINK-4202,1 52848U 22062U   23146.55556583 -.00000423  00000-0 -85044-5 0  9994,2 52848  53.2175 284.6980 0001144  96.3326 263.7796 15.08838360 52085,6917.885,95.438,540.542,538.959,0.0
